[
    {
        "Altitude(m)": 610405.3112231318,
        "Argument of Periapsis(deg)": 0.0,
        "Eccentricity": 0.0,
        "Inclination(deg)": 60.0,
        "Latitude(deg)": 52.11123899799099,
        "Longitude(deg)": -172.5224381128801,
        "Mean Anomaly(deg)": 114.54549999999999,
        "RAAN(deg)": 155.0,
        "Satellite Name": "Test1 689",
        "Satellite Number": 689,
        "Semi-Major Axis(m)": 6980739.136638005,
        "Time(s)": 0
    },
    {
        "Altitude(m)": 610321.883616585,
        "Argument of Periapsis(deg)": 0.00010418945913296404,
        "Eccentricity": 0.0,
        "Inclination(deg)": 60.0,
        "Latitude(deg)": 51.745952464306875,
        "Longitude(deg)": -171.75354672898672,
        "Mean Anomaly(deg)": 115.16560614546184,
        "RAAN(deg)": 154.99957995086027,
        "Satellite Name": "Test1 689",
        "Satellite Number": 689,
        "Semi-Major Axis(m)": 6980739.136638005,
        "Time(s)": 10
    }
]